[{"OBJECT_NAME":"STARLINK-4579","OBJECT_ID":"2022-105AF","EPOCH":"2026-03-09T14:56:14.058816","MEAN_MOTION":15.05644759,"ECCENTRICITY":0.0002038,"INCLINATION":97.6033,"RA_OF_ASC_NODE":311.1666,"ARG_OF_PERICENTER":98.0084,"MEAN_ANOMALY":262.1374,"EPHEMERIS_TYPE":0,"CLASSIFICATION_TYPE":"U","NORAD_CAT_ID":53677,"ELEMENT_SET_NO":999,"REV_AT_EPOCH":19329,"BSTAR":0.0002046,"MEAN_MOTION_DOT":2.892e-5,"MEAN_MOTION_DDOT":0},{"OBJECT_NAME":"CZ-6A DEB","OBJECT_ID":"2022-151WD","EPOCH":"2026-03-09T18:15:50.585760","MEAN_MOTION":14.95909888,"ECCENTRICITY":0.00406186,"INCLINATION":98.6454,"RA_OF_ASC_NODE":143.7847,"ARG_OF_PERICENTER":193.5421,"MEAN_ANOMALY":166.4711,"EPHEMERIS_TYPE":0,"CLASSIFICATION_TYPE":"U","NORAD_CAT_ID":55212,"ELEMENT_SET_NO":999,"REV_AT_EPOCH":17107,"BSTAR":0.0046813987,"MEAN_MOTION_DOT":0.00053565,"MEAN_MOTION_DDOT":0}]
